2021-022X               
1 47953U 21022X   26068.97895505  .00074308  00000+0  93663-3 0  9996
2 47953  97.3969 340.9423 0008868  64.9884 295.2292 15.59323425274976
JILIN-1 GAOFEN 3D28     
1 52445U 22048C   26068.93324272  .00082331  00000+0  10118-2 0  9999
2 52445  97.5571 175.2949 0003088  82.8253 277.3354 15.60004375213974
