[{"OBJECT_NAME":"JILIN-1 GAOFEN 3D28","OBJECT_ID":"2022-048C","EPOCH":"2026-03-09T22:23:52.171008","MEAN_MOTION":15.60004375,"ECCENTRICITY":0.00030881,"INCLINATION":97.5571,"RA_OF_ASC_NODE":175.2949,"ARG_OF_PERICENTER":82.8253,"MEAN_ANOMALY":277.3354,"EPHEMERIS_TYPE":0,"CLASSIFICATION_TYPE":"U","NORAD_CAT_ID":52445,"ELEMENT_SET_NO":999,"REV_AT_EPOCH":21397,"BSTAR":0.0010117511,"MEAN_MOTION_DOT":0.00082331,"MEAN_MOTION_DDOT":0},{"OBJECT_NAME":"OBJECT X","OBJECT_ID":"2021-022X","EPOCH":"2026-03-09T23:29:41.716320","MEAN_MOTION":15.59323425,"ECCENTRICITY":0.00088689,"INCLINATION":97.3969,"RA_OF_ASC_NODE":340.9423,"ARG_OF_PERICENTER":64.9884,"MEAN_ANOMALY":295.2292,"EPHEMERIS_TYPE":0,"CLASSIFICATION_TYPE":"U","NORAD_CAT_ID":47953,"ELEMENT_SET_NO":999,"REV_AT_EPOCH":27497,"BSTAR":0.00093663029,"MEAN_MOTION_DOT":0.00074308,"MEAN_MOTION_DDOT":0}]
